{
  "norad_id": 68475,
  "name": "TRANSPORTER-16 OBJECT BM",
  "history": [
    {
      "epoch": "2026-04-15T19:25:06.368736Z",
      "apogee_km": 596.0892687309988,
      "perigee_km": 593.3154732292223,
      "latitude_deg": 2.3053647152093122e-05,
      "longitude_deg": -70.22358184558298,
      "height_km": 597.6658588200975,
      "semi_major_axis_km": 6972.83937098011,
      "eccentricity": 0.0001989,
      "inclination_deg": 97.7488,
      "raan_deg": 65.0188,
      "arg_perigee_deg": 273.3135,
      "mean_anomaly_deg": 86.7856,
      "mean_motion_rev_day": 14.91036486
    },
    {
      "epoch": "2026-04-16T19:34:39.108288Z",
      "apogee_km": 595.9990603197939,
      "perigee_km": 593.3256890395414,
      "latitude_deg": 7.408036451269263e-06,
      "longitude_deg": -72.613271351884,
      "height_km": 597.7693011458614,
      "semi_major_axis_km": 6972.799374679667,
      "eccentricity": 0.0001917,
      "inclination_deg": 97.7482,
      "raan_deg": 66.0077,
      "arg_perigee_deg": 267.2859,
      "mean_anomaly_deg": 92.814,
      "mean_motion_rev_day": 14.91049315
    },
    {
      "epoch": "2026-04-17T19:44:11.372640Z",
      "apogee_km": 595.9358801592252,
      "perigee_km": 593.3287617101278,
      "latitude_deg": -3.431299065804026e-05,
      "longitude_deg": -75.00127253288555,
      "height_km": 597.8997204852304,
      "semi_major_axis_km": 6972.769320934676,
      "eccentricity": 0.00018695,
      "inclination_deg": 97.7486,
      "raan_deg": 66.9963,
      "arg_perigee_deg": 260.1135,
      "mean_anomaly_deg": 99.9872,
      "mean_motion_rev_day": 14.91058955
    },
    {
      "epoch": "2026-04-21T13:55:40.658880Z",
      "apogee_km": 595.6881145024663,
      "perigee_km": 593.253279894604,
      "latitude_deg": 3.919215289185425e-05,
      "longitude_deg": 12.113354737778451,
      "height_km": 598.2612507809273,
      "semi_major_axis_km": 6972.607697198535,
      "eccentricity": 0.0001746,
      "inclination_deg": 97.7496,
      "raan_deg": 70.687,
      "arg_perigee_deg": 232.1258,
      "mean_anomaly_deg": 127.9803,
      "mean_motion_rev_day": 14.91110799
    },
    {
      "epoch": "2026-04-21T20:22:12.265248Z",
      "apogee_km": 595.6842220036397,
      "perigee_km": 593.2261043624303,
      "latitude_deg": -6.053159194741902e-06,
      "longitude_deg": -84.51930121623487,
      "height_km": 598.2828070284717,
      "semi_major_axis_km": 6972.592163183034,
      "eccentricity": 0.00017627,
      "inclination_deg": 97.7495,
      "raan_deg": 70.9506,
      "arg_perigee_deg": 230.3351,
      "mean_anomaly_deg": 129.7712,
      "mean_motion_rev_day": 14.91115782
    },
    {
      "epoch": "2026-04-23T02:58:11.790912Z",
      "apogee_km": 595.7401765174518,
      "perigee_km": 593.0814045939578,
      "latitude_deg": -4.5664531636030685e-05,
      "longitude_deg": 176.47798556498108,
      "height_km": 598.3900477388027,
      "semi_major_axis_km": 6972.5477905557045,
      "eccentricity": 0.00019066,
      "inclination_deg": 97.7493,
      "raan_deg": 72.2026,
      "arg_perigee_deg": 225.2408,
      "mean_anomaly_deg": 134.8655,
      "mean_motion_rev_day": 14.91130016
    },
    {
      "epoch": "2026-04-24T07:57:32.469120Z",
      "apogee_km": 595.7773434867931,
      "perigee_km": 592.9534800100337,
      "latitude_deg": -6.2178115676989124e-06,
      "longitude_deg": 101.63738007048202,
      "height_km": 598.5271722390733,
      "semi_major_axis_km": 6972.502411748413,
      "eccentricity": 0.0002025,
      "inclination_deg": 97.7487,
      "raan_deg": 73.3887,
      "arg_perigee_deg": 217.601,
      "mean_anomaly_deg": 142.5067,
      "mean_motion_rev_day": 14.91144573
    },
    {
      "epoch": "2026-04-25T12:56:51.962784Z",
      "apogee_km": 595.8127347113423,
      "perigee_km": 592.7908797322925,
      "latitude_deg": -5.15294673882461e-06,
      "longitude_deg": 26.801730105659917,
      "height_km": 598.644452563796,
      "semi_major_axis_km": 6972.438807221817,
      "eccentricity": 0.0002167,
      "inclination_deg": 97.7484,
      "raan_deg": 74.5748,
      "arg_perigee_deg": 210.6665,
      "mean_anomaly_deg": 149.4427,
      "mean_motion_rev_day": 14.91164977
    },
    {
      "epoch": "2026-04-25T12:56:51.963648Z",
      "apogee_km": 595.8129438845062,
      "perigee_km": 592.7906705591286,
      "latitude_deg": -3.4091215356274193e-06,
      "longitude_deg": 26.801726259818818,
      "height_km": 598.6446325229891,
      "semi_major_axis_km": 6972.438807221817,
      "eccentricity": 0.00021673,
      "inclination_deg": 97.7484,
      "raan_deg": 74.5748,
      "arg_perigee_deg": 210.6665,
      "mean_anomaly_deg": 149.4427,
      "mean_motion_rev_day": 14.91164977
    },
    {
      "epoch": "2026-04-27T19:42:10.941408Z",
      "apogee_km": 595.8325452751978,
      "perigee_km": 592.4663253842209,
      "latitude_deg": -6.149322282813753e-06,
      "longitude_deg": -74.53546526571647,
      "height_km": 598.8124629594386,
      "semi_major_axis_km": 6972.286435329709,
      "eccentricity": 0.0002414,
      "inclination_deg": 97.7484,
      "raan_deg": 76.8154,
      "arg_perigee_deg": 195.6784,
      "mean_anomaly_deg": 164.436,
      "mean_motion_rev_day": 14.91213859
    }
  ]
}